BEIDOU-3 M1 (C19)       
1 43001U 17069A   26031.74646072 -.00000019  00000+0  00000+0 0  9998
2 43001  56.5708  67.5801 0011447 305.8339  54.1320  1.86230837 56066
BEIDOU-3 M2 (C20)       
1 43002U 17069B   26032.22185279 -.00000019  00000+0  00000+0 0  9990
2 43002  56.5702  67.6008 0008752 326.0895  33.9268  1.86230742 56069
BEIDOU-3 M7 (C27)       
1 43107U 18003A   26032.50117475 -.00000067  00000+0  00000+0 0  9992
2 43107  54.4492 307.0487 0003951  67.1425 292.9417  1.86232122 54827
BEIDOU-3 M8 (C28)       
1 43108U 18003B   26031.90952858 -.00000065  00000+0  00000+0 0  9996
2 43108  54.4425 307.0519 0003770 287.2125  72.7871  1.86230659 54822
BEIDOU-3 M4 (C22)       
1 43207U 18018A   26032.35167344 -.00000019  00000+0  00000+0 0  9999
2 43207  56.5303  67.6287 0005738 351.1010   8.9610  1.86230767 54216
BEIDOU-3 M3 (C21)       
1 43208U 18018B   26032.41813913 -.00000020  00000+0  00000+0 0  9999
2 43208  56.5299  67.6305 0008917 316.2284  43.7730  1.86230914 54213
BEIDOU-3 M9 (C29)       
1 43245U 18029A   26032.09794047 -.00000061  00000+0  00000+0 0  9997
2 43245  54.3174 304.7097 0000947 338.1997  21.8415  1.86227933 53363
BEIDOU-3 M10 (C30)      
1 43246U 18029B   26032.03296329 -.00000061  00000+0  00000+0 0  9992
2 43246  54.3150 304.7400 0004854  15.6027 344.4572  1.86228846 53348
BEIDOU-2 IGSO-7 (C16)   
1 43539U 18057A   26030.88429465 -.00000148  00000+0  00000+0 0  9994
2 43539  55.1871 164.2597 0098257 236.2111 158.7845  1.00292664 27753
BEIDOU-3 M5 (C23)       
1 43581U 18062A   26031.72024141  .00000021  00000+0  00000+0 0  9992
2 43581  54.0901 186.9429 0001633 338.5059  21.4376  1.86228244 51092
BEIDOU-3 M6 (C24)       
1 43582U 18062B   26029.97222799  .00000047  00000+0  00000+0 0  9994
2 43582  54.0917 186.9908 0007224  49.2495 310.7754  1.86229188 51063
BEIDOU-3 M12 (C26)      
1 43602U 18067A   26030.98445791  .00000028  00000+0  00000+0 0  9993
2 43602  54.1844 185.6922 0008944  41.7923 318.2294  1.86227561 50560
BEIDOU-3 M11 (C25)      
1 43603U 18067B   26032.19301981  .00000015  00000+0  00000+0 0  9997
2 43603  54.1816 185.6150 0005326  37.4640 322.5198  1.86226968 50619
BEIDOU-3 M13 (C32)      
1 43622U 18072A   26032.14927962 -.00000019  00000+0  00000+0 0  9997
2 43622  56.5035  67.1504 0007971 302.7096  57.2853  1.86230778 50127
BEIDOU-3 M14 (C33)      
1 43623U 18072B   26032.01474431 -.00000019  00000+0  00000+0 0  9992
2 43623  56.5051  67.1488 0005397 324.7118  35.3244  1.86230745 50110
BEIDOU-3 M16 (C35)      
1 43647U 18078A   26032.17193269 -.00000061  00000+0  00000+0 0  9995
2 43647  54.2134 304.7565 0008155  26.2452 333.8414  1.86232210 49627
BEIDOU-3 M15 (C34)      
1 43648U 18078B   26032.83812450 -.00000063  00000+0  00000+0 0  9991
2 43648  54.2090 304.7337 0004313  22.4385 337.6275  1.86232087 49653
