[{"OBJECT_NAME":"BEIDOU-3 M1 (C19)","OBJECT_ID":"2017-069A","EPOCH":"2026-01-31T17:54:54.206208","MEAN_MOTION":1.86230837,"ECCENTRICITY":0.00114476,"INCLINATION":56.5708,"RA_OF_ASC_NODE":67.5801,"ARG_OF_PERICENTER":305.8339,"MEAN_ANOMALY":54.132,"EPHEMERIS_TYPE":0,"CLASSIFICATION_TYPE":"U","NORAD_CAT_ID":43001,"ELEMENT_SET_NO":999,"REV_AT_EPOCH":5606,"BSTAR":0,"MEAN_MOTION_DOT":-1.9e-7,"MEAN_MOTION_DDOT":0},{"OBJECT_NAME":"BEIDOU-3 M2 (C20)","OBJECT_ID":"2017-069B","EPOCH":"2026-02-01T05:19:28.081056","MEAN_MOTION":1.86230742,"ECCENTRICITY":0.00087524,"INCLINATION":56.5702,"RA_OF_ASC_NODE":67.6008,"ARG_OF_PERICENTER":326.0895,"MEAN_ANOMALY":33.9268,"EPHEMERIS_TYPE":0,"CLASSIFICATION_TYPE":"U","NORAD_CAT_ID":43002,"ELEMENT_SET_NO":999,"REV_AT_EPOCH":5606,"BSTAR":0,"MEAN_MOTION_DOT":-1.9e-7,"MEAN_MOTION_DDOT":0},{"OBJECT_NAME":"BEIDOU-3 M7 (C27)","OBJECT_ID":"2018-003A","EPOCH":"2026-02-01T12:01:41.498400","MEAN_MOTION":1.86232122,"ECCENTRICITY":0.00039517,"INCLINATION":54.4492,"RA_OF_ASC_NODE":307.0487,"ARG_OF_PERICENTER":67.1425,"MEAN_ANOMALY":292.9417,"EPHEMERIS_TYPE":0,"CLASSIFICATION_TYPE":"U","NORAD_CAT_ID":43107,"ELEMENT_SET_NO":999,"REV_AT_EPOCH":5482,"BSTAR":0,"MEAN_MOTION_DOT":-6.7e-7,"MEAN_MOTION_DDOT":0},{"OBJECT_NAME":"BEIDOU-3 M8 (C28)","OBJECT_ID":"2018-003B","EPOCH":"2026-01-31T21:49:43.269312","MEAN_MOTION":1.86230659,"ECCENTRICITY":0.00037702,"INCLINATION":54.4425,"RA_OF_ASC_NODE":307.0519,"ARG_OF_PERICENTER":287.2125,"MEAN_ANOMALY":72.7871,"EPHEMERIS_TYPE":0,"CLASSIFICATION_TYPE":"U","NORAD_CAT_ID":43108,"ELEMENT_SET_NO":999,"REV_AT_EPOCH":5482,"BSTAR":0,"MEAN_MOTION_DOT":-6.5e-7,"MEAN_MOTION_DDOT":0},{"OBJECT_NAME":"BEIDOU-3 M4 (C22)","OBJECT_ID":"2018-018A","EPOCH":"2026-02-01T08:26:24.585216","MEAN_MOTION":1.86230767,"ECCENTRICITY":0.00057388,"INCLINATION":56.5303,"RA_OF_ASC_NODE":67.6287,"ARG_OF_PERICENTER":351.101,"MEAN_ANOMALY":8.961,"EPHEMERIS_TYPE":0,"CLASSIFICATION_TYPE":"U","NORAD_CAT_ID":43207,"ELEMENT_SET_NO":999,"REV_AT_EPOCH":5421,"BSTAR":0,"MEAN_MOTION_DOT":-1.9e-7,"MEAN_MOTION_DDOT":0},{"OBJECT_NAME":"BEIDOU-3 M3 (C21)","OBJECT_ID":"2018-018B","EPOCH":"2026-02-01T10:02:07.220832","MEAN_MOTION":1.86230914,"ECCENTRICITY":0.00089178,"INCLINATION":56.5299,"RA_OF_ASC_NODE":67.6305,"ARG_OF_PERICENTER":316.2284,"MEAN_ANOMALY":43.773,"EPHEMERIS_TYPE":0,"CLASSIFICATION_TYPE":"U","NORAD_CAT_ID":43208,"ELEMENT_SET_NO":999,"REV_AT_EPOCH":5421,"BSTAR":0,"MEAN_MOTION_DOT":-2.0e-7,"MEAN_MOTION_DDOT":0},{"OBJECT_NAME":"BEIDOU-3 M9 (C29)","OBJECT_ID":"2018-029A","EPOCH":"2026-02-01T02:21:02.056608","MEAN_MOTION":1.86227933,"ECCENTRICITY":9.473e-5,"INCLINATION":54.3174,"RA_OF_ASC_NODE":304.7097,"ARG_OF_PERICENTER":338.1997,"MEAN_ANOMALY":21.8415,"EPHEMERIS_TYPE":0,"CLASSIFICATION_TYPE":"U","NORAD_CAT_ID":43245,"ELEMENT_SET_NO":999,"REV_AT_EPOCH":5336,"BSTAR":0,"MEAN_MOTION_DOT":-6.1e-7,"MEAN_MOTION_DDOT":0},{"OBJECT_NAME":"BEIDOU-3 M10 (C30)","OBJECT_ID":"2018-029B","EPOCH":"2026-02-01T00:47:28.028256","MEAN_MOTION":1.86228846,"ECCENTRICITY":0.00048541,"INCLINATION":54.315,"RA_OF_ASC_NODE":304.74,"ARG_OF_PERICENTER":15.6027,"MEAN_ANOMALY":344.4572,"EPHEMERIS_TYPE":0,"CLASSIFICATION_TYPE":"U","NORAD_CAT_ID":43246,"ELEMENT_SET_NO":999,"REV_AT_EPOCH":5334,"BSTAR":0,"MEAN_MOTION_DOT":-6.1e-7,"MEAN_MOTION_DDOT":0},{"OBJECT_NAME":"BEIDOU-2 IGSO-7 (C16)","OBJECT_ID":"2018-057A","EPOCH":"2026-01-30T21:13:23.057760","MEAN_MOTION":1.00292664,"ECCENTRICITY":0.00982579,"INCLINATION":55.1871,"RA_OF_ASC_NODE":164.2597,"ARG_OF_PERICENTER":236.2111,"MEAN_ANOMALY":158.7845,"EPHEMERIS_TYPE":0,"CLASSIFICATION_TYPE":"U","NORAD_CAT_ID":43539,"ELEMENT_SET_NO":999,"REV_AT_EPOCH":2775,"BSTAR":0,"MEAN_MOTION_DOT":-1.48e-6,"MEAN_MOTION_DDOT":0},{"OBJECT_NAME":"BEIDOU-3 M5 (C23)","OBJECT_ID":"2018-062A","EPOCH":"2026-01-31T17:17:08.857824","MEAN_MOTION":1.86228244,"ECCENTRICITY":0.00016334,"INCLINATION":54.0901,"RA_OF_ASC_NODE":186.9429,"ARG_OF_PERICENTER":338.5059,"MEAN_ANOMALY":21.4376,"EPHEMERIS_TYPE":0,"CLASSIFICATION_TYPE":"U","NORAD_CAT_ID":43581,"ELEMENT_SET_NO":999,"REV_AT_EPOCH":5109,"BSTAR":0,"MEAN_MOTION_DOT":2.1e-7,"MEAN_MOTION_DDOT":0},{"OBJECT_NAME":"BEIDOU-3 M6 (C24)","OBJECT_ID":"2018-062B","EPOCH":"2026-01-29T23:20:00.498336","MEAN_MOTION":1.86229188,"ECCENTRICITY":0.00072246,"INCLINATION":54.0917,"RA_OF_ASC_NODE":186.9908,"ARG_OF_PERICENTER":49.2495,"MEAN_ANOMALY":310.7754,"EPHEMERIS_TYPE":0,"CLASSIFICATION_TYPE":"U","NORAD_CAT_ID":43582,"ELEMENT_SET_NO":999,"REV_AT_EPOCH":5106,"BSTAR":0,"MEAN_MOTION_DOT":4.7e-7,"MEAN_MOTION_DDOT":0},{"OBJECT_NAME":"BEIDOU-3 M12 (C26)","OBJECT_ID":"2018-067A","EPOCH":"2026-01-30T23:37:37.163424","MEAN_MOTION":1.86227561,"ECCENTRICITY":0.00089447,"INCLINATION":54.1844,"RA_OF_ASC_NODE":185.6922,"ARG_OF_PERICENTER":41.7923,"MEAN_ANOMALY":318.2294,"EPHEMERIS_TYPE":0,"CLASSIFICATION_TYPE":"U","NORAD_CAT_ID":43602,"ELEMENT_SET_NO":999,"REV_AT_EPOCH":5056,"BSTAR":0,"MEAN_MOTION_DOT":2.8e-7,"MEAN_MOTION_DDOT":0},{"OBJECT_NAME":"BEIDOU-3 M11 (C25)","OBJECT_ID":"2018-067B","EPOCH":"2026-02-01T04:37:56.911584","MEAN_MOTION":1.86226968,"ECCENTRICITY":0.00053263,"INCLINATION":54.1816,"RA_OF_ASC_NODE":185.615,"ARG_OF_PERICENTER":37.464,"MEAN_ANOMALY":322.5198,"EPHEMERIS_TYPE":0,"CLASSIFICATION_TYPE":"U","NORAD_CAT_ID":43603,"ELEMENT_SET_NO":999,"REV_AT_EPOCH":5061,"BSTAR":0,"MEAN_MOTION_DOT":1.5e-7,"MEAN_MOTION_DDOT":0},{"OBJECT_NAME":"BEIDOU-3 M13 (C32)","OBJECT_ID":"2018-072A","EPOCH":"2026-02-01T03:34:57.759168","MEAN_MOTION":1.86230778,"ECCENTRICITY":0.0007971,"INCLINATION":56.5035,"RA_OF_ASC_NODE":67.1504,"ARG_OF_PERICENTER":302.7096,"MEAN_ANOMALY":57.2853,"EPHEMERIS_TYPE":0,"CLASSIFICATION_TYPE":"U","NORAD_CAT_ID":43622,"ELEMENT_SET_NO":999,"REV_AT_EPOCH":5012,"BSTAR":0,"MEAN_MOTION_DOT":-1.9e-7,"MEAN_MOTION_DDOT":0},{"OBJECT_NAME":"BEIDOU-3 M14 (C33)","OBJECT_ID":"2018-072B","EPOCH":"2026-02-01T00:21:13.908384","MEAN_MOTION":1.86230745,"ECCENTRICITY":0.0005397,"INCLINATION":56.5051,"RA_OF_ASC_NODE":67.1488,"ARG_OF_PERICENTER":324.7118,"MEAN_ANOMALY":35.3244,"EPHEMERIS_TYPE":0,"CLASSIFICATION_TYPE":"U","NORAD_CAT_ID":43623,"ELEMENT_SET_NO":999,"REV_AT_EPOCH":5011,"BSTAR":0,"MEAN_MOTION_DOT":-1.9e-7,"MEAN_MOTION_DDOT":0},{"OBJECT_NAME":"BEIDOU-3 M16 (C35)","OBJECT_ID":"2018-078A","EPOCH":"2026-02-01T04:07:34.984416","MEAN_MOTION":1.8623221,"ECCENTRICITY":0.00081556,"INCLINATION":54.2134,"RA_OF_ASC_NODE":304.7565,"ARG_OF_PERICENTER":26.2452,"MEAN_ANOMALY":333.8414,"EPHEMERIS_TYPE":0,"CLASSIFICATION_TYPE":"U","NORAD_CAT_ID":43647,"ELEMENT_SET_NO":999,"REV_AT_EPOCH":4962,"BSTAR":0,"MEAN_MOTION_DOT":-6.1e-7,"MEAN_MOTION_DDOT":0},{"OBJECT_NAME":"BEIDOU-3 M15 (C34)","OBJECT_ID":"2018-078B","EPOCH":"2026-02-01T20:06:53.956800","MEAN_MOTION":1.86232087,"ECCENTRICITY":0.0004313,"INCLINATION":54.209,"RA_OF_ASC_NODE":304.7337,"ARG_OF_PERICENTER":22.4385,"MEAN_ANOMALY":337.6275,"EPHEMERIS_TYPE":0,"CLASSIFICATION_TYPE":"U","NORAD_CAT_ID":43648,"ELEMENT_SET_NO":999,"REV_AT_EPOCH":4965,"BSTAR":0,"MEAN_MOTION_DOT":-6.3e-7,"MEAN_MOTION_DDOT":0}]
